$$SOE
2461295.500000000, A.D. 2026-Sep-12 00:00:00.0000, -3.834802386557385E+07, -2.787456197921754E+08, -9.904266500831853E+07,
2461302.500000000, A.D. 2026-Sep-19 00:00:00.0000, -2.624477436705684E+07, -2.810612105355908E+08, -9.855816722657634E+07,
2461309.500000000, A.D. 2026-Sep-26 00:00:00.0000, -1.409382986663059E+07, -2.828664317980597E+08, -9.789468964908296E+07,
2461316.500000000, A.D. 2026-Oct-03 00:00:00.0000, -1.917427930764717E+06, -2.841614135306211E+08, -9.705461591570857E+07,
2461323.500000000, A.D. 2026-Oct-10 00:00:00.0000, 1.026244285216448E+07, -2.849470200906293E+08, -9.604055379643160E+07,
2461330.500000000, A.D. 2026-Oct-17 00:00:00.0000, 2.242405414693893E+07, -2.852248290487694E+08, -9.485532679725222E+07,
2461337.500000000, A.D. 2026-Oct-24 00:00:00.0000, 3.454594782704893E+07, -2.849971113361048E+08, -9.350196633355382E+07,
2461344.500000000, A.D. 2026-Oct-31 00:00:00.0000, 4.660694488943708E+07, -2.842668128211807E+08, -9.198370447608982E+07,
2461351.500000000, A.D. 2026-Nov-07 00:00:00.0000, 5.858615383607730E+07, -2.830375372578456E+08, -9.030396728284267E+07,
2461358.500000000, A.D. 2026-Nov-14 00:00:00.0000, 7.046297888248985E+07, -2.813135297206684E+08, -8.846636864675991E+07,
2461365.500000000, A.D. 2026-Nov-21 00:00:00.0000, 8.221712633310530E+07, -2.790996598396516E+08, -8.647470441787659E+07,
2461372.500000000, A.D. 2026-Nov-28 00:00:00.0000, 9.382860827102543E+07, -2.764014078251129E+08, -8.433294693166469E+07,
2461379.500000000, A.D. 2026-Dec-05 00:00:00.0000, 1.052777473234275E+08, -2.732248539166315E+08, -8.204524030686232E+07,
2461386.500000000, A.D. 2026-Dec-12 00:00:00.0000, 1.165451828032078E+08, -2.695766681220085E+08, -7.961589625233191E+07,
2461393.500000000, A.D. 2026-Dec-19 00:00:00.0000, 1.276118764676908E+08, -2.654641002121618E+08, -7.704939018651882E+07,
2461400.500000000, A.D. 2026-Dec-26 00:00:00.0000, 1.384591178744059E+08, -2.608949708061140E+08, -7.435035770271216E+07,
2461407.500000000, A.D. 2027-Jan-02 00:00:00.0000, 1.490685297275004E+08, -2.558776636986976E+08, -7.152359139532435E+07,
2461414.500000000, A.D. 2027-Jan-09 00:00:00.0000, 1.594220734443342E+08, -2.504211193690406E+08, -6.857403802963795E+07,
2461421.500000000, A.D. 2027-Jan-16 00:00:00.0000, 1.695020550841070E+08, -2.445348296145319E+08, -6.550679602926153E+07,
2461428.500000000, A.D. 2027-Jan-23 00:00:00.0000, 1.792911317865091E+08, -2.382288332960227E+08, -6.232711325864898E+07,
2461435.500000000, A.D. 2027-Jan-30 00:00:00.0000, 1.887723190108444E+08, -2.315137131827203E+08, -5.904038509187947E+07,
2461442.500000000, A.D. 2027-Feb-06 00:00:00.0000, 1.979289991044691E+08, -2.244005934992525E+08, -5.565215275043176E+07,
2461449.500000000, A.D. 2027-Feb-13 00:00:00.0000, 2.067449308394475E+08, -2.169011368991682E+08, -5.216810173840450E+07,
2461456.500000000, A.D. 2027-Feb-20 00:00:00.0000, 2.152042576450580E+08, -2.090275415919603E+08, -4.859406018957344E+07,
2461463.500000000, A.D. 2027-Feb-27 00:00:00.0000, 2.232915160200645E+08, -2.007925417606195E+08, -4.493599748067094E+07,
2461470.500000000, A.D. 2027-Mar-06 00:00:00.0000, 2.309916472337607E+08, -1.922094092644149E+08, -4.120002319407321E+07,
2461477.500000000, A.D. 2027-Mar-13 00:00:00.0000, 2.382900108080043E+08, -1.832919544939019E+08, -3.739238607875367E+07,
2461484.500000000, A.D. 2027-Mar-20 00:00:00.0000, 2.451723987405053E+08, -1.740545271241317E+08, -3.351947293507908E+07,
2461491.500000000, A.D. 2027-Mar-27 00:00:00.0000, 2.516250507585288E+08, -1.645120172182058E+08, -2.958780744526138E+07,
2461498.500000000, A.D. 2027-Apr-03 00:00:00.0000, 2.576346708919371E+08, -1.546798566240197E+08, -2.560404892799876E+07,
2461505.500000000, A.D. 2027-Apr-10 00:00:00.0000, 2.631884455123172E+08, -1.445740205288815E+08, -2.157499097443118E+07,
2461512.500000000, A.D. 2027-Apr-17 00:00:00.0000, 2.682740629440593E+08, -1.342110290680655E+08, -1.750755991874514E+07,
2461519.500000000, A.D. 2027-Apr-24 00:00:00.0000, 2.728797348029336E+08, -1.236079489252721E+08, -1.340881310183655E+07,
2461526.500000000, A.D. 2027-May-01 00:00:00.0000, 2.769942194239068E+08, -1.127823947611532E+08, -9.285936895017520E+06,
2461533.500000000, A.D. 2027-May-08 00:00:00.0000, 2.806068477375622E+08, -1.017525295684490E+08, -5.146244389287181E+06,
2461540.500000000, A.D. 2027-May-15 00:00:00.0000, 2.837075501447064E+08, -9.053706283393209E+07, -9.971724720364660E+05,
2461547.500000000, A.D. 2027-May-22 00:00:00.0000, 2.862868828615273E+08, -7.915524891289234E+07, 3.153721702659141E+06,
2461554.500000000, A.D. 2027-May-29 00:00:00.0000, 2.883360571281997E+08, -6.762688687460105E+07, 7.298764485249247E+06,
2461561.500000000, A.D. 2027-Jun-05 00:00:00.0000, 2.898469722134349E+08, -5.597231847310065E+07, 1.143016998725625E+07,
2461568.500000000, A.D. 2027-Jun-12 00:00:00.0000, 2.908122502452657E+08, -4.421242360247372E+07, 1.554004512017400E+07,
2461575.500000000, A.D. 2027-Jun-19 00:00:00.0000, 2.912252725447569E+08, -3.236861395293279E+07, 1.962039545383806E+07,
2461582.500000000, A.D. 2027-Jun-26 00:00:00.0000, 2.910802177199897E+08, -2.046282488923883E+07, 2.366313193268562E+07,
2461589.500000000, A.D. 2027-Jul-03 00:00:00.0000, 2.903721016067818E+08, -8.517505281790322E+06, 2.766007852506367E+07,
2461596.500000000, A.D. 2027-Jul-10 00:00:00.0000, 2.890968190257357E+08, 3.444394997438774E+06, 3.160298089101852E+07,
2461603.500000000, A.D. 2027-Jul-17 00:00:00.0000, 2.872511873014821E+08, 1.539944016841480E+07, 3.548351615206134E+07,
2461610.500000000, A.D. 2027-Jul-24 00:00:00.0000, 2.848329915825484E+08, 2.732372646615502E+07, 3.929330383480331E+07,
2461617.500000000, A.D. 2027-Jul-31 00:00:00.0000, 2.818410322165240E+08, 3.919290343843003E+07, 4.302391805933370E+07,
2461624.500000000, A.D. 2027-Aug-07 00:00:00.0000, 2.782751737767001E+08, 5.098220009497380E+07, 4.666690117050387E+07,
2461631.500000000, A.D. 2027-Aug-14 00:00:00.0000, 2.741363932113814E+08, 6.266645599575625E+07, 5.021377909229358E+07,
2461638.500000000, A.D. 2027-Aug-21 00:00:00.0000, 2.694268274739044E+08, 7.422015424238789E+07, 5.365607816263898E+07,
2461645.500000000, A.D. 2027-Aug-28 00:00:00.0000, 2.641498237349308E+08, 8.561745789739642E+07, 5.698534330817902E+07,
2461652.500000000, A.D. 2027-Sep-04 00:00:00.0000, 2.583099906100579E+08, 9.683225265885997E+07, 6.019315793945888E+07,
2461659.500000000, A.D. 2027-Sep-11 00:00:00.0000, 2.519132485743934E+08, 1.078381954435830E+08, 6.327116570123113E+07,
2461666.500000000, A.D. 2027-Sep-18 00:00:00.0000, 2.449668792081797E+08, 1.186087685225520E+08, 6.621109406141481E+07,
2461673.500000000, A.D. 2027-Sep-25 00:00:00.0000, 2.374795729527423E+08, 1.291173393979979E+08, 6.900477974514967E+07,
2461680.500000000, A.D. 2027-Oct-02 00:00:00.0000, 2.294614748410755E+08, 1.393372266814528E+08, 7.164419602522370E+07,
2461687.500000000, A.D. 2027-Oct-09 00:00:00.0000, 2.209242275541976E+08, 1.492417721552715E+08, 7.412148186143288E+07,
2461694.500000000, A.D. 2027-Oct-16 00:00:00.0000, 2.118810111364631E+08, 1.588044190944948E+08, 7.642897284933998E+07,
2461701.500000000, A.D. 2027-Oct-23 00:00:00.0000, 2.023465788460185E+08, 1.679987969089060E+08, 7.855923389738581E+07,
2461708.500000000, A.D. 2027-Oct-30 00:00:00.0000, 1.923372886846293E+08, 1.767988126984740E+08, 8.050509355732858E+07,
2461715.500000000, A.D. 2027-Nov-06 00:00:00.0000, 1.818711285580723E+08, 1.851787507318269E+08, 8.225968006772378E+07,
2461722.500000000, A.D. 2027-Nov-13 00:00:00.0000, 1.709677321437421E+08, 1.931133775684199E+08, 8.381645894315106E+07,
2461729.500000000, A.D. 2027-Nov-20 00:00:00.0000, 1.596483874314473E+08, 2.005780503423657E+08, 8.516927146174350E+07,
2461736.500000000, A.D. 2027-Nov-27 00:00:00.0000, 1.479360386113328E+08, 2.075488307353297E+08, 8.631237389088365E+07,
2461743.500000000, A.D. 2027-Dec-04 00:00:00.0000, 1.358552783304512E+08, 2.140026049850849E+08, 8.724047741099760E+07,
2461750.500000000, A.D. 2027-Dec-11 00:00:00.0000, 1.234323288439231E+08, 2.199172082663533E+08, 8.794878837535879E+07,
2461757.500000000, A.D. 2027-Dec-18 00:00:00.0000, 1.106950114679324E+08, 2.252715522580172E+08, 8.843304847988722E+07,
2461764.500000000, A.D. 2027-Dec-25 00:00:00.0000, 9.767270369433971E+07, 2.300457548961037E+08, 8.868957441262375E+07,
2461771.500000000, A.D. 2028-Jan-01 00:00:00.0000, 8.439628331511299E+07, 2.342212711802043E+08, 8.871529652187309E+07,
$$EOE